[{"OBJECT_NAME":"STARLINK-5191","OBJECT_ID":"2022-175F","EPOCH":"2026-03-09T04:54:34.405632","MEAN_MOTION":15.08840131,"ECCENTRICITY":0.00014032,"INCLINATION":53.2177,"RA_OF_ASC_NODE":46.4475,"ARG_OF_PERICENTER":87.52,"MEAN_ANOMALY":272.5953,"EPHEMERIS_TYPE":0,"CLASSIFICATION_TYPE":"U","NORAD_CAT_ID":54763,"ELEMENT_SET_NO":999,"REV_AT_EPOCH":17984,"BSTAR":2.932983e-5,"MEAN_MOTION_DOT":1.79e-6,"MEAN_MOTION_DDOT":0},{"OBJECT_NAME":"OBJECT G","OBJECT_ID":"2026-027G","EPOCH":"2026-03-09T21:53:37.288032","MEAN_MOTION":15.12145257,"ECCENTRICITY":0.00120269,"INCLINATION":97.4906,"RA_OF_ASC_NODE":197.8999,"ARG_OF_PERICENTER":227.3105,"MEAN_ANOMALY":132.7114,"EPHEMERIS_TYPE":0,"CLASSIFICATION_TYPE":"U","NORAD_CAT_ID":67752,"ELEMENT_SET_NO":999,"REV_AT_EPOCH":389,"BSTAR":0.00053594907,"MEAN_MOTION_DOT":9.195e-5,"MEAN_MOTION_DDOT":0}]
